{
  "type": "FeatureCollection",
  "features": [
    {
      "type": "Feature",
      "properties": {
        "norad_id": 31185,
        "name": "FENGYUN 1C DEB",
        "group": "fengyun-1c-debris",
        "lat": 21.73517597194384,
        "lon": -20.588410864779583,
        "alt_km": 880.1506465901502,
        "timestamp": "2025-12-12T11:38:31.692997+00:00",
        "meta_object_name": "FENGYUN 1C DEB",
        "meta_object_id": "1999-025BJP",
        "meta_epoch": "2025-12-03T06:44:56.905152",
        "meta_mean_motion": 14.03019915,
        "meta_eccentricity": 0.0041359,
        "meta_inclination": 98.8321,
        "meta_ra_of_asc_node": 334.0356,
        "meta_arg_of_pericenter": 132.5488,
        "meta_mean_anomaly": 227.9182,
        "meta_ephemeris_type": 0,
        "meta_classification_type": "U",
        "meta_norad_cat_id": 31185,
        "meta_element_set_no": 999,
        "meta_rev_at_epoch": 62204,
        "meta_bstar": 0.0004459,
        "meta_mean_motion_dot": 6.55e-06,
        "meta_mean_motion_ddot": 0,
        "tle_line1": "1 31185U 99025BJP 25337.28121418  .00000655  00000+0  44590-3 0  9990",
        "tle_line2": "2 31185  98.8321 334.0356 0041359 132.5488 227.9182 14.03019915622046"
      },
      "geometry": {
        "type": "Point",
        "coordinates": [
          -20.588410864779583,
          21.73517597194384
        ]
      }
    },
    {
      "type": "Feature",
      "properties": {
        "norad_id": 31186,
        "name": "FENGYUN 1C DEB",
        "group": "fengyun-1c-debris",
        "lat": -16.979207217701667,
        "lon": 79.00777309739655,
        "alt_km": 867.5834773503948,
        "timestamp": "2025-12-12T11:38:31.693007+00:00",
        "meta_object_name": "FENGYUN 1C DEB",
        "meta_object_id": "1999-025BJQ",
        "meta_epoch": "2025-12-07T00:08:36.055104",
        "meta_mean_motion": 14.12891869,
        "meta_eccentricity": 0.00265947,
        "meta_inclination": 99.1777,
        "meta_ra_of_asc_node": 256.2241,
        "meta_arg_of_pericenter": 78.4554,
        "meta_mean_anomaly": 344.6063,
        "meta_ephemeris_type": 0,
        "meta_classification_type": "U",
        "meta_norad_cat_id": 31186,
        "meta_element_set_no": 999,
        "meta_rev_at_epoch": 96024,
        "meta_bstar": 0.00076036897,
        "meta_mean_motion_dot": 1.373e-05,
        "meta_mean_motion_ddot": 0,
        "tle_line1": "1 31186U 99025BJQ 25341.00597286  .00001373  00000+0  76037-3 0  9995",
        "tle_line2": "2 31186  99.1777 256.2241 0026594  78.4554 344.6063 14.12891869960248"
      },
      "geometry": {
        "type": "Point",
        "coordinates": [
          79.00777309739655,
          -16.979207217701667
        ]
      }
    },
    {
      "type": "Feature",
      "properties": {
        "norad_id": 31187,
        "name": "FENGYUN 1C DEB",
        "group": "fengyun-1c-debris",
        "lat": 45.13722918967884,
        "lon": -159.51236431141493,
        "alt_km": 847.2666146005995,
        "timestamp": "2025-12-12T11:38:31.693017+00:00",
        "meta_object_name": "FENGYUN 1C DEB",
        "meta_object_id": "1999-025BJR",
        "meta_epoch": "2025-12-11T20:36:49.956192",
        "meta_mean_motion": 14.59304704,
        "meta_eccentricity": 0.0220474,
        "meta_inclination": 99.2402,
        "meta_ra_of_asc_node": 209.205,
        "meta_arg_of_pericenter": 226.4486,
        "meta_mean_anomaly": 131.8216,
        "meta_ephemeris_type": 0,
        "meta_classification_type": "U",
        "meta_norad_cat_id": 31187,
        "meta_element_set_no": 999,
        "meta_rev_at_epoch": 69087,
        "meta_bstar": 0.0043997,
        "meta_mean_motion_dot": 0.00029272,
        "meta_mean_motion_ddot": 0,
        "tle_line1": "1 31187U 99025BJR 25345.85891153  .00029272  00000+0  43997-2 0  9999",
        "tle_line2": "2 31187  99.2402 209.2050 0220474 226.4486 131.8216 14.59304704690876"
      },
      "geometry": {
        "type": "Point",
        "coordinates": [
          -159.51236431141493,
          45.13722918967884
        ]
      }
    },
    {
      "type": "Feature",
      "properties": {
        "norad_id": 31188,
        "name": "FENGYUN 1C DEB",
        "group": "fengyun-1c-debris",
        "lat": -51.51785557101371,
        "lon": -136.89704972182,
        "alt_km": 778.3455999248336,
        "timestamp": "2025-12-12T11:38:31.693027+00:00",
        "meta_object_name": "FENGYUN 1C DEB",
        "meta_object_id": "1999-025BJS",
        "meta_epoch": "2025-12-09T20:27:36.322272",
        "meta_mean_motion": 14.23793839,
        "meta_eccentricity": 0.00598746,
        "meta_inclination": 98.7483,
        "meta_ra_of_asc_node": 51.6537,
        "meta_arg_of_pericenter": 257.7465,
        "meta_mean_anomaly": 168.5076,
        "meta_ephemeris_type": 0,
        "meta_classification_type": "U",
        "meta_norad_cat_id": 31188,
        "meta_element_set_no": 999,
        "meta_rev_at_epoch": 96295,
        "meta_bstar": 0.0024661444,
        "meta_mean_motion_dot": 5.704e-05,
        "meta_mean_motion_ddot": 0,
        "tle_line1": "1 31188U 99025BJS 25343.85250373  .00005704  00000+0  24661-2 0  9992",
        "tle_line2": "2 31188  98.7483  51.6537 0059874 257.7465 168.5076 14.23793839962951"
      },
      "geometry": {
        "type": "Point",
        "coordinates": [
          -136.89704972182,
          -51.51785557101371
        ]
      }
    },
    {
      "type": "Feature",
      "properties": {
        "norad_id": 31190,
        "name": "FENGYUN 1C DEB",
        "group": "fengyun-1c-debris",
        "lat": 49.00249941793717,
        "lon": -11.069346280420227,
        "alt_km": 919.1863176380639,
        "timestamp": "2025-12-12T11:38:31.693037+00:00",
        "meta_object_name": "FENGYUN 1C DEB",
        "meta_object_id": "1999-025BJU",
        "meta_epoch": "2025-12-11T23:25:41.001600",
        "meta_mean_motion": 14.03596446,
        "meta_eccentricity": 0.0067599,
        "meta_inclination": 98.8188,
        "meta_ra_of_asc_node": 358.7254,
        "meta_arg_of_pericenter": 261.5537,
        "meta_mean_anomaly": 97.7963,
        "meta_ephemeris_type": 0,
        "meta_classification_type": "U",
        "meta_norad_cat_id": 31190,
        "meta_element_set_no": 999,
        "meta_rev_at_epoch": 95536,
        "meta_bstar": 0.0011916,
        "meta_mean_motion_dot": 1.865e-05,
        "meta_mean_motion_ddot": 0,
        "tle_line1": "1 31190U 99025BJU 25345.97616900  .00001865  00000+0  11916-2 0  9995",
        "tle_line2": "2 31190  98.8188 358.7254 0067599 261.5537  97.7963 14.03596446955368"
      },
      "geometry": {
        "type": "Point",
        "coordinates": [
          -11.069346280420227,
          49.00249941793717
        ]
      }
    },
    {
      "type": "Feature",
      "properties": {
        "norad_id": 31191,
        "name": "FENGYUN 1C DEB",
        "group": "fengyun-1c-debris",
        "lat": -66.62321884861026,
        "lon": 46.41274205015797,
        "alt_km": 723.0874641569035,
        "timestamp": "2025-12-12T11:38:31.693046+00:00",
        "meta_object_name": "FENGYUN 1C DEB",
        "meta_object_id": "1999-025BJV",
        "meta_epoch": "2025-12-11T16:09:43.776576",
        "meta_mean_motion": 14.40787461,
        "meta_eccentricity": 0.00921693,
        "meta_inclination": 98.7825,
        "meta_ra_of_asc_node": 246.5353,
        "meta_arg_of_pericenter": 197.6731,
        "meta_mean_anomaly": 162.1244,
        "meta_ephemeris_type": 0,
        "meta_classification_type": "U",
        "meta_norad_cat_id": 31191,
        "meta_element_set_no": 999,
        "meta_rev_at_epoch": 97997,
        "meta_bstar": 0.00052120527,
        "meta_mean_motion_dot": 1.705e-05,
        "meta_mean_motion_ddot": 0,
        "tle_line1": "1 31191U 99025BJV 25345.67342334  .00001705  00000+0  52121-3 0  9997",
        "tle_line2": "2 31191  98.7825 246.5353 0092169 197.6731 162.1244 14.40787461979978"
      },
      "geometry": {
        "type": "Point",
        "coordinates": [
          46.41274205015797,
          -66.62321884861026
        ]
      }
    },
    {
      "type": "Feature",
      "properties": {
        "norad_id": 31192,
        "name": "FENGYUN 1C DEB",
        "group": "fengyun-1c-debris",
        "lat": 9.60794677500499,
        "lon": 151.64097965054728,
        "alt_km": 742.8044717727344,
        "timestamp": "2025-12-12T11:38:31.693056+00:00",
        "meta_object_name": "FENGYUN 1C DEB",
        "meta_object_id": "1999-025BJW",
        "meta_epoch": "2025-12-11T09:31:13.752480",
        "meta_mean_motion": 14.20956541,
        "meta_eccentricity": 0.02596479,
        "meta_inclination": 98.5534,
        "meta_ra_of_asc_node": 329.1261,
        "meta_arg_of_pericenter": 107.6098,
        "meta_mean_anomaly": 255.3617,
        "meta_ephemeris_type": 0,
        "meta_classification_type": "U",
        "meta_norad_cat_id": 31192,
        "meta_element_set_no": 999,
        "meta_rev_at_epoch": 96724,
        "meta_bstar": 0.00041362171,
        "meta_mean_motion_dot": 1.215e-05,
        "meta_mean_motion_ddot": 0,
        "tle_line1": "1 31192U 99025BJW 25345.39668695  .00001215  00000+0  41362-3 0  9999",
        "tle_line2": "2 31192  98.5534 329.1261 0259647 107.6098 255.3617 14.20956541967244"
      },
      "geometry": {
        "type": "Point",
        "coordinates": [
          151.64097965054728,
          9.60794677500499
        ]
      }
    }
  ]
}